[{"OBJECT_NAME":"STARLINK-32888","OBJECT_ID":"2025-029U","EPOCH":"2026-03-09T21:09:15.086304","MEAN_MOTION":15.30210062,"ECCENTRICITY":8.367e-5,"INCLINATION":53.1567,"RA_OF_ASC_NODE":231.814,"ARG_OF_PERICENTER":75.5148,"MEAN_ANOMALY":284.5946,"EPHEMERIS_TYPE":0,"CLASSIFICATION_TYPE":"U","NORAD_CAT_ID":62966,"ELEMENT_SET_NO":999,"REV_AT_EPOCH":6134,"BSTAR":0.0014685907,"MEAN_MOTION_DOT":0.00043404,"MEAN_MOTION_DDOT":0},{"OBJECT_NAME":"TITAN 3C TRANSTAGE DEB","OBJECT_ID":"1965-082PT","EPOCH":"2026-03-09T13:23:41.116128","MEAN_MOTION":15.28908269,"ECCENTRICITY":0.00104371,"INCLINATION":32.0266,"RA_OF_ASC_NODE":255.1391,"ARG_OF_PERICENTER":172.8339,"MEAN_ANOMALY":187.2474,"EPHEMERIS_TYPE":0,"CLASSIFICATION_TYPE":"U","NORAD_CAT_ID":3462,"ELEMENT_SET_NO":999,"REV_AT_EPOCH":24824,"BSTAR":0.0004444037,"MEAN_MOTION_DOT":0.00012939,"MEAN_MOTION_DDOT":0}]
